{
  "type": "FeatureCollection",
  "features": [
    {
      "type": "Feature",
      "properties": {
        "norad_id": 43246,
        "name": "BEIDOU-3 M10 (C30)",
        "group": "gnss",
        "lat": -11.267894751801732,
        "lon": 134.45275329498887,
        "alt_km": 21541.448971189286,
        "timestamp": "2025-12-19T06:59:44.151491+00:00",
        "meta_object_name": "BEIDOU-3 M10 (C30)",
        "meta_object_id": "2018-029B",
        "meta_epoch": "2025-12-17T09:23:40.675200",
        "meta_mean_motion": 1.8622912,
        "meta_eccentricity": 0.00041993,
        "meta_inclination": 54.3586,
        "meta_ra_of_asc_node": 306.3321,
        "meta_arg_of_pericenter": 3.5987,
        "meta_mean_anomaly": 356.3911,
        "meta_ephemeris_type": 0,
        "meta_classification_type": "U",
        "meta_norad_cat_id": 43246,
        "meta_element_set_no": 999,
        "meta_rev_at_epoch": 5249,
        "meta_bstar": 0,
        "meta_mean_motion_dot": -9e-07,
        "meta_mean_motion_ddot": 0,
        "tle_line1": "1 43246U 18029B   25351.39144300 -.00000090  00000+0  00000+0 0  9997",
        "tle_line2": "2 43246  54.3586 306.3321 0004199   3.5987 356.3911  1.86229120 52494"
      },
      "geometry": {
        "type": "Point",
        "coordinates": [
          134.45275329498887,
          -11.267894751801732
        ]
      }
    },
    {
      "type": "Feature",
      "properties": {
        "norad_id": 43286,
        "name": "IRNSS-1I",
        "group": "gnss",
        "lat": 4.337802293155919,
        "lon": -110.82519714859392,
        "alt_km": 35695.23929362486,
        "timestamp": "2025-12-19T06:59:44.151518+00:00",
        "meta_object_name": "IRNSS-1I",
        "meta_object_id": "2018-035A",
        "meta_epoch": "2025-12-14T19:56:38.641056",
        "meta_mean_motion": 1.00272129,
        "meta_eccentricity": 0.00217173,
        "meta_inclination": 29.1546,
        "meta_ra_of_asc_node": 77.0653,
        "meta_arg_of_pericenter": 182.6132,
        "meta_mean_anomaly": 178.227,
        "meta_ephemeris_type": 0,
        "meta_classification_type": "U",
        "meta_norad_cat_id": 43286,
        "meta_element_set_no": 999,
        "meta_rev_at_epoch": 2823,
        "meta_bstar": 0,
        "meta_mean_motion_dot": 8.4e-07,
        "meta_mean_motion_ddot": 0,
        "tle_line1": "1 43286U 18035A   25348.83100279  .00000084  00000+0  00000+0 0  9992",
        "tle_line2": "2 43286  29.1546  77.0653 0021717 182.6132 178.2270  1.00272129 28237"
      },
      "geometry": {
        "type": "Point",
        "coordinates": [
          -110.82519714859392,
          4.337802293155919
        ]
      }
    },
    {
      "type": "Feature",
      "properties": {
        "norad_id": 43508,
        "name": "COSMOS 2527 (756)",
        "group": "gnss",
        "lat": -44.7652125139649,
        "lon": 53.052152487176535,
        "alt_km": 19132.399749678578,
        "timestamp": "2025-12-19T06:59:44.151538+00:00",
        "meta_object_name": "COSMOS 2527 (756)",
        "meta_object_id": "2018-053A",
        "meta_epoch": "2025-12-18T10:03:29.975616",
        "meta_mean_motion": 2.13102295,
        "meta_eccentricity": 0.00088359,
        "meta_inclination": 65.4756,
        "meta_ra_of_asc_node": 79.9416,
        "meta_arg_of_pericenter": 226.669,
        "meta_mean_anomaly": 133.2786,
        "meta_ephemeris_type": 0,
        "meta_classification_type": "U",
        "meta_norad_cat_id": 43508,
        "meta_element_set_no": 999,
        "meta_rev_at_epoch": 5842,
        "meta_bstar": 0,
        "meta_mean_motion_dot": -3.8e-07,
        "meta_mean_motion_ddot": 0,
        "tle_line1": "1 43508U 18053A   25352.41909694 -.00000038  00000+0  00000+0 0  9996",
        "tle_line2": "2 43508  65.4756  79.9416 0008835 226.6690 133.2786  2.13102295 58420"
      },
      "geometry": {
        "type": "Point",
        "coordinates": [
          53.052152487176535,
          -44.7652125139649
        ]
      }
    },
    {
      "type": "Feature",
      "properties": {
        "norad_id": 43539,
        "name": "BEIDOU-2 IGSO-7 (C16)",
        "group": "gnss",
        "lat": 33.32915938311668,
        "lon": -42.69137234538344,
        "alt_km": 35833.793861263846,
        "timestamp": "2025-12-19T06:59:44.151555+00:00",
        "meta_object_name": "BEIDOU-2 IGSO-7 (C16)",
        "meta_object_id": "2018-057A",
        "meta_epoch": "2025-12-15T07:47:07.120608",
        "meta_mean_motion": 1.00256546,
        "meta_eccentricity": 0.00926218,
        "meta_inclination": 55.1766,
        "meta_ra_of_asc_node": 164.6485,
        "meta_arg_of_pericenter": 235.2644,
        "meta_mean_anomaly": 271.8458,
        "meta_ephemeris_type": 0,
        "meta_classification_type": "U",
        "meta_norad_cat_id": 43539,
        "meta_element_set_no": 999,
        "meta_rev_at_epoch": 2728,
        "meta_bstar": 0,
        "meta_mean_motion_dot": -2.3e-07,
        "meta_mean_motion_ddot": 0,
        "tle_line1": "1 43539U 18057A   25349.32438797 -.00000023  00000+0  00000+0 0  9995",
        "tle_line2": "2 43539  55.1766 164.6485 0092621 235.2644 271.8458  1.00256546 27289"
      },
      "geometry": {
        "type": "Point",
        "coordinates": [
          -42.69137234538344,
          33.32915938311668
        ]
      }
    },
    {
      "type": "Feature",
      "properties": {
        "norad_id": 43564,
        "name": "GSAT0221 (GALILEO 25)",
        "group": "gnss",
        "lat": -7.642155253494907,
        "lon": 171.59365589008522,
        "alt_km": 23225.331779741482,
        "timestamp": "2025-12-19T06:59:44.151581+00:00",
        "meta_object_name": "GSAT0221 (GALILEO 25)",
        "meta_object_id": "2018-060A",
        "meta_epoch": "2025-12-17T19:26:26.344896",
        "meta_mean_motion": 1.7047594,
        "meta_eccentricity": 0.00067192,
        "meta_inclination": 57.2267,
        "meta_ra_of_asc_node": 346.6806,
        "meta_arg_of_pericenter": 285.1372,
        "meta_mean_anomaly": 74.8036,
        "meta_ephemeris_type": 0,
        "meta_classification_type": "U",
        "meta_norad_cat_id": 43564,
        "meta_element_set_no": 999,
        "meta_rev_at_epoch": 4607,
        "meta_bstar": 0,
        "meta_mean_motion_dot": -7.7e-07,
        "meta_mean_motion_ddot": 0,
        "tle_line1": "1 43564U 18060A   25351.81002714 -.00000077  00000+0  00000+0 0  9999",
        "tle_line2": "2 43564  57.2267 346.6806 0006719 285.1372  74.8036  1.70475940 46079"
      },
      "geometry": {
        "type": "Point",
        "coordinates": [
          171.59365589008522,
          -7.642155253494907
        ]
      }
    },
    {
      "type": "Feature",
      "properties": {
        "norad_id": 43565,
        "name": "GSAT0222 (GALILEO 26)",
        "group": "gnss",
        "lat": 43.228852829516185,
        "lon": 23.909663400643304,
        "alt_km": 23232.336469764596,
        "timestamp": "2025-12-19T06:59:44.151598+00:00",
        "meta_object_name": "GSAT0222 (GALILEO 26)",
        "meta_object_id": "2018-060B",
        "meta_epoch": "2025-12-18T00:42:17.845344",
        "meta_mean_motion": 1.70475645,
        "meta_eccentricity": 0.00060883,
        "meta_inclination": 57.23,
        "meta_ra_of_asc_node": 346.6777,
        "meta_arg_of_pericenter": 265.4214,
        "meta_mean_anomaly": 94.5238,
        "meta_ephemeris_type": 0,
        "meta_classification_type": "U",
        "meta_norad_cat_id": 43565,
        "meta_element_set_no": 999,
        "meta_rev_at_epoch": 4612,
        "meta_bstar": 0,
        "meta_mean_motion_dot": -7.6e-07,
        "meta_mean_motion_ddot": 0,
        "tle_line1": "1 43565U 18060B   25352.02937321 -.00000076  00000+0  00000+0 0  9994",
        "tle_line2": "2 43565  57.2300 346.6777 0006088 265.4214  94.5238  1.70475645 46121"
      },
      "geometry": {
        "type": "Point",
        "coordinates": [
          23.909663400643304,
          43.228852829516185
        ]
      }
    },
    {
      "type": "Feature",
      "properties": {
        "norad_id": 43566,
        "name": "GSAT0219 (GALILEO 23)",
        "group": "gnss",
        "lat": -56.17178872865285,
        "lon": -87.38644172450623,
        "alt_km": 23210.897137052816,
        "timestamp": "2025-12-19T06:59:44.151616+00:00",
        "meta_object_name": "GSAT0219 (GALILEO 23)",
        "meta_object_id": "2018-060C",
        "meta_epoch": "2025-12-18T06:00:44.208288",
        "meta_mean_motion": 1.70475856,
        "meta_eccentricity": 0.00058664,
        "meta_inclination": 57.2293,
        "meta_ra_of_asc_node": 346.6733,
        "meta_arg_of_pericenter": 289.9096,
        "meta_mean_anomaly": 70.0415,
        "meta_ephemeris_type": 0,
        "meta_classification_type": "U",
        "meta_norad_cat_id": 43566,
        "meta_element_set_no": 999,
        "meta_rev_at_epoch": 4610,
        "meta_bstar": 0,
        "meta_mean_motion_dot": -7.6e-07,
        "meta_mean_motion_ddot": 0,
        "tle_line1": "1 43566U 18060C   25352.25051167 -.00000076  00000+0  00000+0 0  9995",
        "tle_line2": "2 43566  57.2293 346.6733 0005866 289.9096  70.0415  1.70475856 46105"
      },
      "geometry": {
        "type": "Point",
        "coordinates": [
          -87.38644172450623,
          -56.17178872865285
        ]
      }
    }
  ]
}